{
  "type": "FeatureCollection",
  "features": [
    {
      "type": "Feature",
      "properties": {
        "norad_id": 58701,
        "name": "TIANMU-1 16",
        "group": "weather",
        "lat": -20.754283837372974,
        "lon": 163.21951498611546,
        "alt_km": 494.92157822686477,
        "timestamp": "2025-12-05T11:32:55.669929+00:00",
        "meta_object_name": "TIANMU-1 16",
        "meta_object_id": "2024-004B",
        "meta_epoch": "2025-12-04T10:25:53.796288",
        "meta_mean_motion": 15.24253221,
        "meta_eccentricity": 0.000511,
        "meta_inclination": 97.4569,
        "meta_ra_of_asc_node": 159.3334,
        "meta_arg_of_pericenter": 331.1239,
        "meta_mean_anomaly": 28.9715,
        "meta_ephemeris_type": 0,
        "meta_classification_type": "U",
        "meta_norad_cat_id": 58701,
        "meta_element_set_no": 999,
        "meta_rev_at_epoch": 10608,
        "meta_bstar": 8.3688e-05,
        "meta_mean_motion_dot": 1.97e-05,
        "meta_mean_motion_ddot": 0,
        "tle_line1": "1 58701U 24004B   25338.43465042  .00001970  00000+0  83688-4 0  9993",
        "tle_line2": "2 58701  97.4569 159.3334 0005110 331.1239  28.9715 15.24253221106084"
      },
      "geometry": {
        "type": "Point",
        "coordinates": [
          163.21951498611546,
          -20.754283837372974
        ]
      }
    },
    {
      "type": "Feature",
      "properties": {
        "norad_id": 58702,
        "name": "TIANMU-1 17",
        "group": "weather",
        "lat": 61.634625830734116,
        "lon": 146.73552946473262,
        "alt_km": 486.9073245546897,
        "timestamp": "2025-12-05T11:32:55.669938+00:00",
        "meta_object_name": "TIANMU-1 17",
        "meta_object_id": "2024-004C",
        "meta_epoch": "2025-12-04T17:56:42.695232",
        "meta_mean_motion": 15.24312361,
        "meta_eccentricity": 0.0004208,
        "meta_inclination": 97.4595,
        "meta_ra_of_asc_node": 160.0501,
        "meta_arg_of_pericenter": 333.5998,
        "meta_mean_anomaly": 26.5024,
        "meta_ephemeris_type": 0,
        "meta_classification_type": "U",
        "meta_norad_cat_id": 58702,
        "meta_element_set_no": 999,
        "meta_rev_at_epoch": 10612,
        "meta_bstar": 0.00054682,
        "meta_mean_motion_dot": 0.00013311,
        "meta_mean_motion_ddot": 0,
        "tle_line1": "1 58702U 24004C   25338.74771638  .00013311  00000+0  54682-3 0  9992",
        "tle_line2": "2 58702  97.4595 160.0501 0004208 333.5998  26.5024 15.24312361106127"
      },
      "geometry": {
        "type": "Point",
        "coordinates": [
          146.73552946473262,
          61.634625830734116
        ]
      }
    },
    {
      "type": "Feature",
      "properties": {
        "norad_id": 58703,
        "name": "TIANMU-1 18",
        "group": "weather",
        "lat": 25.30558673909978,
        "lon": -15.473515279565547,
        "alt_km": 494.59263245191687,
        "timestamp": "2025-12-05T11:32:55.669950+00:00",
        "meta_object_name": "TIANMU-1 18",
        "meta_object_id": "2024-004D",
        "meta_epoch": "2025-12-04T17:32:36.132000",
        "meta_mean_motion": 15.24303484,
        "meta_eccentricity": 0.0003586,
        "meta_inclination": 97.4613,
        "meta_ra_of_asc_node": 160.227,
        "meta_arg_of_pericenter": 334.7201,
        "meta_mean_anomaly": 25.386,
        "meta_ephemeris_type": 0,
        "meta_classification_type": "U",
        "meta_norad_cat_id": 58703,
        "meta_element_set_no": 999,
        "meta_rev_at_epoch": 10612,
        "meta_bstar": 0.00056601,
        "meta_mean_motion_dot": 0.00013777,
        "meta_mean_motion_ddot": 0,
        "tle_line1": "1 58703U 24004D   25338.73097375  .00013777  00000+0  56601-3 0  9990",
        "tle_line2": "2 58703  97.4613 160.2270 0003586 334.7201  25.3860 15.24303484106123"
      },
      "geometry": {
        "type": "Point",
        "coordinates": [
          -15.473515279565547,
          25.30558673909978
        ]
      }
    },
    {
      "type": "Feature",
      "properties": {
        "norad_id": 58990,
        "name": "INSAT-3DS",
        "group": "weather",
        "lat": -0.005753351398851407,
        "lon": -30.15506789731792,
        "alt_km": 35784.34268932286,
        "timestamp": "2025-12-05T11:32:55.669962+00:00",
        "meta_object_name": "INSAT-3DS",
        "meta_object_id": "2024-033A",
        "meta_epoch": "2025-12-04T14:07:02.364384",
        "meta_mean_motion": 1.00268719,
        "meta_eccentricity": 0.0001758,
        "meta_inclination": 0.0119,
        "meta_ra_of_asc_node": 346.2482,
        "meta_arg_of_pericenter": 274.3669,
        "meta_mean_anomaly": 106.8853,
        "meta_ephemeris_type": 0,
        "meta_classification_type": "U",
        "meta_norad_cat_id": 58990,
        "meta_element_set_no": 999,
        "meta_rev_at_epoch": 4511,
        "meta_bstar": 0,
        "meta_mean_motion_dot": 0,
        "meta_mean_motion_ddot": 0,
        "tle_line1": "1 58990U 24033A   25338.58822181  .00000000  00000+0  00000+0 0  9997",
        "tle_line2": "2 58990   0.0119 346.2482 0001758 274.3669 106.8853  1.00268719 45117"
      },
      "geometry": {
        "type": "Point",
        "coordinates": [
          -30.15506789731792,
          -0.005753351398851407
        ]
      }
    },
    {
      "type": "Feature",
      "properties": {
        "norad_id": 59051,
        "name": "METEOR-M2 4",
        "group": "weather",
        "lat": 68.4201733653019,
        "lon": 139.2113592076824,
        "alt_km": 810.6647824342408,
        "timestamp": "2025-12-05T11:32:55.669973+00:00",
        "meta_object_name": "METEOR-M2 4",
        "meta_object_id": "2024-039A",
        "meta_epoch": "2025-12-04T18:09:09.180000",
        "meta_mean_motion": 14.22399386,
        "meta_eccentricity": 0.0007471,
        "meta_inclination": 98.6754,
        "meta_ra_of_asc_node": 295.7909,
        "meta_arg_of_pericenter": 20.8279,
        "meta_mean_anomaly": 339.3202,
        "meta_ephemeris_type": 0,
        "meta_classification_type": "U",
        "meta_norad_cat_id": 59051,
        "meta_element_set_no": 999,
        "meta_rev_at_epoch": 9162,
        "meta_bstar": 6.2659e-05,
        "meta_mean_motion_dot": 9.6e-07,
        "meta_mean_motion_ddot": 0,
        "tle_line1": "1 59051U 24039A   25338.75635625  .00000096  00000+0  62659-4 0  9994",
        "tle_line2": "2 59051  98.6754 295.7909 0007471  20.8279 339.3202 14.22399386 91626"
      },
      "geometry": {
        "type": "Point",
        "coordinates": [
          139.2113592076824,
          68.4201733653019
        ]
      }
    },
    {
      "type": "Feature",
      "properties": {
        "norad_id": 60133,
        "name": "GOES 19",
        "group": "weather",
        "lat": -0.0005977393695175318,
        "lon": 172.55740879700178,
        "alt_km": 35789.786354914315,
        "timestamp": "2025-12-05T11:32:55.669986+00:00",
        "meta_object_name": "GOES 19",
        "meta_object_id": "2024-119A",
        "meta_epoch": "2025-12-04T11:39:20.571264",
        "meta_mean_motion": 1.00270587,
        "meta_eccentricity": 0.0001344,
        "meta_inclination": 0.0089,
        "meta_ra_of_asc_node": 79.657,
        "meta_arg_of_pericenter": 218.516,
        "meta_mean_anomaly": 235.0408,
        "meta_ephemeris_type": 0,
        "meta_classification_type": "U",
        "meta_norad_cat_id": 60133,
        "meta_element_set_no": 999,
        "meta_rev_at_epoch": 501,
        "meta_bstar": 0,
        "meta_mean_motion_dot": -2.33e-06,
        "meta_mean_motion_ddot": 0,
        "tle_line1": "1 60133U 24119A   25338.48565476 -.00000233  00000+0  00000+0 0  9993",
        "tle_line2": "2 60133   0.0089  79.6570 0001344 218.5160 235.0408  1.00270587  5019"
      },
      "geometry": {
        "type": "Point",
        "coordinates": [
          172.55740879700178,
          -0.0005977393695175318
        ]
      }
    },
    {
      "type": "Feature",
      "properties": {
        "norad_id": 65815,
        "name": "FENGYUN 3H",
        "group": "weather",
        "lat": 52.848373679818216,
        "lon": -92.37016578522069,
        "alt_km": 820.2753215714201,
        "timestamp": "2025-12-05T11:32:55.669997+00:00",
        "meta_object_name": "FENGYUN 3H",
        "meta_object_id": "2025-219A",
        "meta_epoch": "2025-12-04T16:41:35.952864",
        "meta_mean_motion": 14.19901167,
        "meta_eccentricity": 6.19e-05,
        "meta_inclination": 98.6572,
        "meta_ra_of_asc_node": 278.4611,
        "meta_arg_of_pericenter": 73.715,
        "meta_mean_anomaly": 286.4095,
        "meta_ephemeris_type": 0,
        "meta_classification_type": "U",
        "meta_norad_cat_id": 65815,
        "meta_element_set_no": 999,
        "meta_rev_at_epoch": 978,
        "meta_bstar": 0.00011312,
        "meta_mean_motion_dot": 1.97e-06,
        "meta_mean_motion_ddot": 0,
        "tle_line1": "1 65815U 25219A   25338.69555501  .00000197  00000+0  11312-3 0  9998",
        "tle_line2": "2 65815  98.6572 278.4611 0000619  73.7150 286.4095 14.19901167  9789"
      },
      "geometry": {
        "type": "Point",
        "coordinates": [
          -92.37016578522069,
          52.848373679818216
        ]
      }
    }
  ]
}